CCSDS_OMM_VERS = 2.0
CREATION_DATE  = 
ORIGINATOR     = 

OBJECT_NAME    = STARLINK-36648
OBJECT_ID      = 2026-033E
CENTER_NAME    = EARTH
REF_FRAME      = TEME
TIME_SYSTEM    = UTC
MEAN_ELEMENT_THEORY = SGP/SGP4

EPOCH          = 2026-03-09T22:39:08.874144
MEAN_MOTION    = 15.82124078
ECCENTRICITY   = .00020385
INCLINATION    = 42.9985
RA_OF_ASC_NODE = 269.9255
ARG_OF_PERICENTER = 263.4086
MEAN_ANOMALY   = 96.6553

EPHEMERIS_TYPE = 0
CLASSIFICATION_TYPE = U
NORAD_CAT_ID   = 67825
ELEMENT_SET_NO = 999
REV_AT_EPOCH   = 466
BSTAR          = .16322513E-2
MEAN_MOTION_DOT = .35964E-2
MEAN_MOTION_DDOT = 0

CCSDS_OMM_VERS = 2.0
CREATION_DATE  = 
ORIGINATOR     = 

OBJECT_NAME    = STARLINK-35865
OBJECT_ID      = 2026-033F
CENTER_NAME    = EARTH
REF_FRAME      = TEME
TIME_SYSTEM    = UTC
MEAN_ELEMENT_THEORY = SGP/SGP4

EPOCH          = 2026-03-09T22:38:04.136352
MEAN_MOTION    = 15.82109633
ECCENTRICITY   = .00020806
INCLINATION    = 42.9983
RA_OF_ASC_NODE = 269.9180
ARG_OF_PERICENTER = 256.8542
MEAN_ANOMALY   = 103.2098

EPHEMERIS_TYPE = 0
CLASSIFICATION_TYPE = U
NORAD_CAT_ID   = 67826
ELEMENT_SET_NO = 999
REV_AT_EPOCH   = 466
BSTAR          = .12998174E-2
MEAN_MOTION_DOT = .283558E-2
MEAN_MOTION_DDOT = 0

CCSDS_OMM_VERS = 2.0
CREATION_DATE  = 
ORIGINATOR     = 

OBJECT_NAME    = STARLINK-36289
OBJECT_ID      = 2026-033G
CENTER_NAME    = EARTH
REF_FRAME      = TEME
TIME_SYSTEM    = UTC
MEAN_ELEMENT_THEORY = SGP/SGP4

EPOCH          = 2026-03-09T22:36:59.532480
MEAN_MOTION    = 15.82091997
ECCENTRICITY   = .00014605
INCLINATION    = 42.9975
RA_OF_ASC_NODE = 269.9115
ARG_OF_PERICENTER = 254.9187
MEAN_ANOMALY   = 105.1524

EPHEMERIS_TYPE = 0
CLASSIFICATION_TYPE = U
NORAD_CAT_ID   = 67827
ELEMENT_SET_NO = 999
REV_AT_EPOCH   = 466
BSTAR          = .11316455E-2
MEAN_MOTION_DOT = .2455E-2
MEAN_MOTION_DDOT = 0

CCSDS_OMM_VERS = 2.0
CREATION_DATE  = 
ORIGINATOR     = 

OBJECT_NAME    = STARLINK-36670
OBJECT_ID      = 2026-033H
CENTER_NAME    = EARTH
REF_FRAME      = TEME
TIME_SYSTEM    = UTC
MEAN_ELEMENT_THEORY = SGP/SGP4

EPOCH          = 2026-03-09T22:35:54.705696
MEAN_MOTION    = 15.82166120
ECCENTRICITY   = .00018859
INCLINATION    = 42.9981
RA_OF_ASC_NODE = 269.9067
ARG_OF_PERICENTER = 271.9286
MEAN_ANOMALY   = 88.1370

EPHEMERIS_TYPE = 0
CLASSIFICATION_TYPE = U
NORAD_CAT_ID   = 67828
ELEMENT_SET_NO = 999
REV_AT_EPOCH   = 466
BSTAR          = .21165676E-2
MEAN_MOTION_DOT = .473721E-2
MEAN_MOTION_DDOT = 0

CCSDS_OMM_VERS = 2.0
CREATION_DATE  = 
ORIGINATOR     = 

OBJECT_NAME    = STARLINK-36144
OBJECT_ID      = 2026-033J
CENTER_NAME    = EARTH
REF_FRAME      = TEME
TIME_SYSTEM    = UTC
MEAN_ELEMENT_THEORY = SGP/SGP4

EPOCH          = 2026-03-09T22:34:49.964448
MEAN_MOTION    = 15.82102911
ECCENTRICITY   = .00020061
INCLINATION    = 42.9981
RA_OF_ASC_NODE = 269.9000
ARG_OF_PERICENTER = 273.4332
MEAN_ANOMALY   = 86.6310

EPHEMERIS_TYPE = 0
CLASSIFICATION_TYPE = U
NORAD_CAT_ID   = 67829
ELEMENT_SET_NO = 999
REV_AT_EPOCH   = 466
BSTAR          = .12975449E-2
MEAN_MOTION_DOT = .282952E-2
MEAN_MOTION_DDOT = 0

CCSDS_OMM_VERS = 2.0
CREATION_DATE  = 
ORIGINATOR     = 

OBJECT_NAME    = STARLINK-36611
OBJECT_ID      = 2026-033K
CENTER_NAME    = EARTH
REF_FRAME      = TEME
TIME_SYSTEM    = UTC
MEAN_ELEMENT_THEORY = SGP/SGP4

EPOCH          = 2026-03-09T21:02:50.507808
MEAN_MOTION    = 15.82120370
ECCENTRICITY   = .0002011
INCLINATION    = 42.9978
RA_OF_ASC_NODE = 270.2807
ARG_OF_PERICENTER = 263.0328
MEAN_ANOMALY   = 97.0316

EPHEMERIS_TYPE = 0
CLASSIFICATION_TYPE = U
NORAD_CAT_ID   = 67830
ELEMENT_SET_NO = 999
REV_AT_EPOCH   = 465
BSTAR          = .14720006E-2
MEAN_MOTION_DOT = .32283E-2
MEAN_MOTION_DDOT = 0

CCSDS_OMM_VERS = 2.0
CREATION_DATE  = 
ORIGINATOR     = 

OBJECT_NAME    = STARLINK-36661
OBJECT_ID      = 2026-033L
CENTER_NAME    = EARTH
REF_FRAME      = TEME
TIME_SYSTEM    = UTC
MEAN_ELEMENT_THEORY = SGP/SGP4

EPOCH          = 2026-03-09T22:32:40.535520
MEAN_MOTION    = 15.82124605
ECCENTRICITY   = .00020611
INCLINATION    = 42.9978
RA_OF_ASC_NODE = 269.8882
ARG_OF_PERICENTER = 286.6256
MEAN_ANOMALY   = 73.4389

EPHEMERIS_TYPE = 0
CLASSIFICATION_TYPE = U
NORAD_CAT_ID   = 67831
ELEMENT_SET_NO = 999
REV_AT_EPOCH   = 466
BSTAR          = .15863134E-2
MEAN_MOTION_DOT = .349081E-2
MEAN_MOTION_DDOT = 0

CCSDS_OMM_VERS = 2.0
CREATION_DATE  = 
ORIGINATOR     = 

OBJECT_NAME    = STARLINK-36662
OBJECT_ID      = 2026-033M
CENTER_NAME    = EARTH
REF_FRAME      = TEME
TIME_SYSTEM    = UTC
MEAN_ELEMENT_THEORY = SGP/SGP4

EPOCH          = 2026-03-09T22:33:33.060672
MEAN_MOTION    = 15.84533735
ECCENTRICITY   = .00018729
INCLINATION    = 42.9967
RA_OF_ASC_NODE = 268.9837
ARG_OF_PERICENTER = 281.0050
MEAN_ANOMALY   = 79.0612

EPHEMERIS_TYPE = 0
CLASSIFICATION_TYPE = U
NORAD_CAT_ID   = 67832
ELEMENT_SET_NO = 999
REV_AT_EPOCH   = 467
BSTAR          = .16136012E-2
MEAN_MOTION_DOT = .400339E-2
MEAN_MOTION_DDOT = 0

CCSDS_OMM_VERS = 2.0
CREATION_DATE  = 
ORIGINATOR     = 

OBJECT_NAME    = STARLINK-36659
OBJECT_ID      = 2026-033N
CENTER_NAME    = EARTH
REF_FRAME      = TEME
TIME_SYSTEM    = UTC
MEAN_ELEMENT_THEORY = SGP/SGP4

EPOCH          = 2026-03-09T22:31:35.685408
MEAN_MOTION    = 15.82120696
ECCENTRICITY   = .00021777
INCLINATION    = 42.9978
RA_OF_ASC_NODE = 269.8821
ARG_OF_PERICENTER = 260.9113
MEAN_ANOMALY   = 99.1513

EPHEMERIS_TYPE = 0
CLASSIFICATION_TYPE = U
NORAD_CAT_ID   = 67833
ELEMENT_SET_NO = 999
REV_AT_EPOCH   = 466
BSTAR          = .14447072E-2
MEAN_MOTION_DOT = .31661E-2
MEAN_MOTION_DDOT = 0

CCSDS_OMM_VERS = 2.0
CREATION_DATE  = 
ORIGINATOR     = 

OBJECT_NAME    = STARLINK-36655
OBJECT_ID      = 2026-033P
CENTER_NAME    = EARTH
REF_FRAME      = TEME
TIME_SYSTEM    = UTC
MEAN_ELEMENT_THEORY = SGP/SGP4

EPOCH          = 2026-03-09T22:30:30.874176
MEAN_MOTION    = 15.82128399
ECCENTRICITY   = .00022065
INCLINATION    = 42.9978
RA_OF_ASC_NODE = 269.8761
ARG_OF_PERICENTER = 257.6865
MEAN_ANOMALY   = 102.3760

EPHEMERIS_TYPE = 0
CLASSIFICATION_TYPE = U
NORAD_CAT_ID   = 67834
ELEMENT_SET_NO = 999
REV_AT_EPOCH   = 466
BSTAR          = .1443934E-2
MEAN_MOTION_DOT = .316553E-2
MEAN_MOTION_DDOT = 0

CCSDS_OMM_VERS = 2.0
CREATION_DATE  = 
ORIGINATOR     = 

OBJECT_NAME    = STARLINK-36657
OBJECT_ID      = 2026-033Q
CENTER_NAME    = EARTH
REF_FRAME      = TEME
TIME_SYSTEM    = UTC
MEAN_ELEMENT_THEORY = SGP/SGP4

EPOCH          = 2026-03-09T22:29:26.170944
MEAN_MOTION    = 15.82121331
ECCENTRICITY   = .00018064
INCLINATION    = 42.9975
RA_OF_ASC_NODE = 269.8698
ARG_OF_PERICENTER = 274.2564
MEAN_ANOMALY   = 85.8101

EPHEMERIS_TYPE = 0
CLASSIFICATION_TYPE = U
NORAD_CAT_ID   = 67835
ELEMENT_SET_NO = 999
REV_AT_EPOCH   = 466
BSTAR          = .145823E-2
MEAN_MOTION_DOT = .319701E-2
MEAN_MOTION_DDOT = 0

CCSDS_OMM_VERS = 2.0
CREATION_DATE  = 
ORIGINATOR     = 

OBJECT_NAME    = STARLINK-36650
OBJECT_ID      = 2026-033R
CENTER_NAME    = EARTH
REF_FRAME      = TEME
TIME_SYSTEM    = UTC
MEAN_ELEMENT_THEORY = SGP/SGP4

EPOCH          = 2026-03-09T22:28:21.530784
MEAN_MOTION    = 15.82097160
ECCENTRICITY   = .00020921
INCLINATION    = 42.9983
RA_OF_ASC_NODE = 269.8633
ARG_OF_PERICENTER = 273.4886
MEAN_ANOMALY   = 86.5747

EPHEMERIS_TYPE = 0
CLASSIFICATION_TYPE = U
NORAD_CAT_ID   = 67836
ELEMENT_SET_NO = 999
REV_AT_EPOCH   = 466
BSTAR          = .1194471E-2
MEAN_MOTION_DOT = .259656E-2
MEAN_MOTION_DDOT = 0

