STARLINK-36648          
1 67825U 26033E   26068.94385271  .00359640  00000+0  16323-2 0  9996
2 67825  42.9985 269.9255 0002038 263.4086  96.6553 15.82124078  4665
STARLINK-35865          
1 67826U 26033F   26068.94310343  .00283558  00000+0  12998-2 0  9993
2 67826  42.9983 269.9180 0002080 256.8542 103.2098 15.82109633  4660
STARLINK-36289          
1 67827U 26033G   26068.94235570  .00245500  00000+0  11316-2 0  9990
2 67827  42.9975 269.9115 0001460 254.9187 105.1524 15.82091997  4663
STARLINK-36670          
1 67828U 26033H   26068.94160539  .00473721  00000+0  21166-2 0  9995
2 67828  42.9981 269.9067 0001885 271.9286  88.1370 15.82166120  4667
STARLINK-36144          
1 67829U 26033J   26068.94085607  .00282952  00000+0  12975-2 0  9990
2 67829  42.9981 269.9000 0002006 273.4332  86.6310 15.82102911  4665
STARLINK-36611          
1 67830U 26033K   26068.87697347  .00322830  00000+0  14720-2 0  9994
2 67830  42.9978 270.2807 0002011 263.0328  97.0316 15.82120370  4659
STARLINK-36661          
1 67831U 26033L   26068.93935805  .00349081  00000+0  15863-2 0  9992
2 67831  42.9978 269.8882 0002061 286.6256  73.4389 15.82124605  4667
STARLINK-36662          
1 67832U 26033M   26068.93996598  .00400339  00000+0  16136-2 0  9997
2 67832  42.9967 268.9837 0001872 281.0050  79.0612 15.84533735  4678
STARLINK-36659          
1 67833U 26033N   26068.93860747  .00316610  00000+0  14447-2 0  9995
2 67833  42.9978 269.8821 0002177 260.9113  99.1513 15.82120696  4667
STARLINK-36655          
1 67834U 26033P   26068.93785734  .00316553  00000+0  14439-2 0  9995
2 67834  42.9978 269.8761 0002206 257.6865 102.3760 15.82128399  4660
STARLINK-36657          
1 67835U 26033Q   26068.93710846  .00319701  00000+0  14582-2 0  9995
2 67835  42.9975 269.8698 0001806 274.2564  85.8101 15.82121331  4666
STARLINK-36650          
1 67836U 26033R   26068.93636031  .00259656  00000+0  11945-2 0  9991
2 67836  42.9983 269.8633 0002092 273.4886  86.5747 15.82097160  4667
